{
  "links" : {
    "next" : "https://api.nasa.gov/neo/rest/v1/feed?start_date=2003-04-23&end_date=2003-04-23&detailed=true&api_key=t0TVs3DtDT2H8Oy2Zy8m2eVrNsAVKAexjcZXUckd",
    "prev" : "https://api.nasa.gov/neo/rest/v1/feed?start_date=2003-04-21&end_date=2003-04-21&detailed=true&api_key=t0TVs3DtDT2H8Oy2Zy8m2eVrNsAVKAexjcZXUckd",
    "self" : "https://api.nasa.gov/neo/rest/v1/feed?start_date=2003-04-22&end_date=2003-04-22&detailed=true&api_key=t0TVs3DtDT2H8Oy2Zy8m2eVrNsAVKAexjcZXUckd"
  },
  "element_count" : 3,
  "near_earth_objects" : {
    "2003-04-22" : [ {
      "links" : {
        "self" : "https://api.nasa.gov/neo/rest/v1/neo/2085990?api_key=t0TVs3DtDT2H8Oy2Zy8m2eVrNsAVKAexjcZXUckd"
      },
      "neo_reference_id" : "2085990",
      "name" : "85990 (1999 JV6)",
      "nasa_jpl_url" : "http://ssd.jpl.nasa.gov/sbdb.cgi?sstr=2085990",
      "absolute_magnitude_h" : 20.2,
      "estimated_diameter" : {
        "kilometers" : {
          "estimated_diameter_min" : 0.2424124811,
          "estimated_diameter_max" : 0.5420507863
        },
        "meters" : {
          "estimated_diameter_min" : 242.4124811008,
          "estimated_diameter_max" : 542.0507863358
        },
        "miles" : {
          "estimated_diameter_min" : 0.1506280858,
          "estimated_diameter_max" : 0.3368146392
        },
        "feet" : {
          "estimated_diameter_min" : 795.3165644948,
          "estimated_diameter_max" : 1778.3819018419
        }
      },
      "is_potentially_hazardous_asteroid" : true,
      "close_approach_data" : [ {
        "close_approach_date" : "2003-04-22",
        "epoch_date_close_approach" : 1050994800000,
        "relative_velocity" : {
          "kilometers_per_second" : "7.3985946953",
          "kilometers_per_hour" : "26634.9409029271",
          "miles_per_hour" : "16549.9164738215"
        },
        "miss_distance" : {
          "astronomical" : "0.2919674698",
          "lunar" : "113.5753479004",
          "kilometers" : "43677712",
          "miles" : "27140074"
        },
        "orbiting_body" : "Earth"
      } ],
      "orbital_data" : {
        "orbit_id" : "229",
        "orbit_determination_date" : "2017-04-06 09:28:32",
        "orbit_uncertainty" : "0",
        "minimum_orbit_intersection" : ".0311616",
        "jupiter_tisserand_invariant" : "5.995",
        "epoch_osculation" : "2456067.5",
        "eccentricity" : ".3113896916773102",
        "semi_major_axis" : "1.008096929579188",
        "inclination" : "5.319084389582808",
        "ascending_node_longitude" : "124.5513617783884",
        "orbital_period" : "369.7020551984641",
        "perihelion_distance" : ".6941859374966813",
        "perihelion_argument" : "235.3374957840193",
        "aphelion_distance" : "1.322007921661694",
        "perihelion_time" : "2456213.986984696820",
        "mean_anomaly" : "217.357259043243",
        "mean_motion" : ".9737570969324046",
        "equinox" : "J2000"
      }
    }, {
      "links" : {
        "self" : "https://api.nasa.gov/neo/rest/v1/neo/3582516?api_key=t0TVs3DtDT2H8Oy2Zy8m2eVrNsAVKAexjcZXUckd"
      },
      "neo_reference_id" : "3582516",
      "name" : "(2011 UV63)",
      "nasa_jpl_url" : "http://ssd.jpl.nasa.gov/sbdb.cgi?sstr=3582516",
      "absolute_magnitude_h" : 21.7,
      "estimated_diameter" : {
        "kilometers" : {
          "estimated_diameter_min" : 0.1214940408,
          "estimated_diameter_max" : 0.2716689341
        },
        "meters" : {
          "estimated_diameter_min" : 121.4940407996,
          "estimated_diameter_max" : 271.6689340891
        },
        "miles" : {
          "estimated_diameter_min" : 0.0754928736,
          "estimated_diameter_max" : 0.1688071972
        },
        "feet" : {
          "estimated_diameter_min" : 398.6025088171,
          "estimated_diameter_max" : 891.3023057169
        }
      },
      "is_potentially_hazardous_asteroid" : true,
      "close_approach_data" : [ {
        "close_approach_date" : "2003-04-22",
        "epoch_date_close_approach" : 1050994800000,
        "relative_velocity" : {
          "kilometers_per_second" : "7.904816096",
          "kilometers_per_hour" : "28457.3379456934",
          "miles_per_hour" : "17682.2831252004"
        },
        "miss_distance" : {
          "astronomical" : "0.2260985477",
          "lunar" : "87.9523391724",
          "kilometers" : "33823864",
          "miles" : "21017174"
        },
        "orbiting_body" : "Earth"
      } ],
      "orbital_data" : {
        "orbit_id" : "22",
        "orbit_determination_date" : "2017-04-06 08:52:20",
        "orbit_uncertainty" : "1",
        "minimum_orbit_intersection" : ".0354341",
        "jupiter_tisserand_invariant" : "5.296",
        "epoch_osculation" : "2458000.5",
        "eccentricity" : ".1342413722378202",
        "semi_major_axis" : "1.193166652001986",
        "inclination" : "9.786673703121918",
        "ascending_node_longitude" : "13.7170421670205",
        "orbital_period" : "476.0472787403519",
        "perihelion_distance" : "1.032994323328834",
        "perihelion_argument" : "189.7728841550539",
        "aphelion_distance" : "1.353338980675138",
        "perihelion_time" : "2457992.423983408800",
        "mean_anomaly" : "6.107305099033488",
        "mean_motion" : ".7562274086569308",
        "equinox" : "J2000"
      }
    }, {
      "links" : {
        "self" : "https://api.nasa.gov/neo/rest/v1/neo/3720440?api_key=t0TVs3DtDT2H8Oy2Zy8m2eVrNsAVKAexjcZXUckd"
      },
      "neo_reference_id" : "3720440",
      "name" : "(2015 KJ122)",
      "nasa_jpl_url" : "http://ssd.jpl.nasa.gov/sbdb.cgi?sstr=3720440",
      "absolute_magnitude_h" : 22.0,
      "estimated_diameter" : {
        "kilometers" : {
          "estimated_diameter_min" : 0.1058168859,
          "estimated_diameter_max" : 0.2366137501
        },
        "meters" : {
          "estimated_diameter_min" : 105.8168859331,
          "estimated_diameter_max" : 236.6137501138
        },
        "miles" : {
          "estimated_diameter_min" : 0.0657515442,
          "estimated_diameter_max" : 0.1470249225
        },
        "feet" : {
          "estimated_diameter_min" : 347.1682720448,
          "estimated_diameter_max" : 776.2918559233
        }
      },
      "is_potentially_hazardous_asteroid" : true,
      "close_approach_data" : [ {
        "close_approach_date" : "2003-04-22",
        "epoch_date_close_approach" : 1050994800000,
        "relative_velocity" : {
          "kilometers_per_second" : "25.4015765822",
          "kilometers_per_hour" : "91445.6756959844",
          "miles_per_hour" : "56820.7866567632"
        },
        "miss_distance" : {
          "astronomical" : "0.1215347016",
          "lunar" : "47.2770004272",
          "kilometers" : "18181334",
          "miles" : "11297357"
        },
        "orbiting_body" : "Earth"
      } ],
      "orbital_data" : {
        "orbit_id" : "13",
        "orbit_determination_date" : "2017-05-03 06:19:10",
        "orbit_uncertainty" : "3",
        "minimum_orbit_intersection" : ".0315366",
        "jupiter_tisserand_invariant" : "7.138",
        "epoch_osculation" : "2458000.5",
        "eccentricity" : ".7503611477011412",
        "semi_major_axis" : ".7852922752790124",
        "inclination" : "5.068934884971722",
        "ascending_node_longitude" : "187.9971371188961",
        "orbital_period" : "254.1823643012567",
        "perihelion_distance" : ".1960394623198122",
        "perihelion_argument" : "229.6781323398696",
        "aphelion_distance" : "1.374545088238213",
        "perihelion_time" : "2458045.234429415820",
        "mean_anomaly" : "296.6423605588614",
        "mean_motion" : "1.416305969887542",
        "equinox" : "J2000"
      }
    } ]
  }
}